LEMUR-2-URSA-AVION      
1 46318U 20061AY  23123.21180079  .00058693  00000+0  14326-2 0  9998
2 46318  97.4120 198.0170 0003435 150.1817 209.9625 15.40652496147356
LEMUR-2-SLICERS         
1 46500U 20068Q   23123.40044134  .00018690  00000+0  99975-3 0  9997
2 46500  97.7523  71.5342 0007896 295.2502  64.7901 15.15086052142352
LEMUR-2-DAYWZAGOODDAY   
1 46501U 20068R   23123.62566424  .00018991  00000+0  10195-2 0  9993
2 46501  97.7533  72.0889 0008323 290.1207  69.9121 15.14953816142393
LEMUR-2-SUSURRUS        
1 46502U 20068S   23123.40122275  .00020963  00000+0  11199-2 0  9999
2 46502  97.7520  71.5333 0007745 292.5450  67.4945 15.15107602142359
LEMUR-2-NICHOL          
1 46503U 20068T   23123.40581841  .00017322  00000+0  95057-3 0  9999
2 46503  97.7571  71.3945 0008524 302.1586  57.8816 15.14189087142342
LEMUR-2-OZARAK          
1 46908U 20081D   23123.32938808  .00011435  00000+0  70358-3 0  9999
2 46908  36.8999 116.5154 0008117 196.8797 163.1679 15.09451562136360
LEMUR-2-JINDRA          
1 46909U 20081E   23123.33756814  .00013448  00000+0  78806-3 0  9998
2 46909  36.9030 112.8933 0009354 204.8100 155.2196 15.11158546136415
LEMUR-2-WALLACE         
1 46910U 20081F   23123.35634972  .00012951  00000+0  77543-3 0  9997
2 46910  36.9005 113.9494 0008292 200.1268 159.9159 15.10400299136398
LEMUR-2-JEREMIAH        
1 46911U 20081G   23123.38594604  .00009535  00000+0  58273-3 0  9991
2 46911  36.9051 114.2483 0009937 200.3130 159.7220 15.09745986136401
LEMUR-2-NEVA            
1 47450U 21006AP  23123.41961242  .00029456  00000+0  98917-3 0  9991
2 47450  97.3995 184.0529 0007617 219.0199 141.0493 15.30781636125960
LEMUR-2-SAOIRSEDH5GUO   
1 47453U 21006AS  23123.16234810  .00036560  00000+0  11561-2 0  9993
2 47453  97.4012 184.2126 0006779 220.4631 139.6108 15.32676622125937
LEMUR-2-NALLYWACKER     
1 47457U 21006AW  23123.44652869  .00035230  00000+0  11073-2 0  9997
2 47457  97.3982 184.4624 0007488 219.3732 140.6966 15.32874555125993
LEMUR-2-MANGO1          
1 47493U 21006CJ  23123.41348939  .00020060  00000+0  75994-3 0  9992
2 47493  97.3944 182.2624 0007524 226.7072 133.3540 15.26911149125886
LEMUR-2-RUAIRI-EILIDH   
1 47511U 21006DC  23123.44216527  .00026842  00000+0  95789-3 0  9991
2 47511  97.3924 182.1485 0005229 224.6777 135.4042 15.28835125125889
LEMUR-2-JENNIFERSONG    
1 47525U 21006DR  23123.11663198  .00040522  00000+0  12686-2 0  9995
2 47525  97.3939 183.6676 0007421 219.0723 140.9984 15.32969907125947
LEMUR-2-CHANTAL         
1 47529U 21006DV  23123.43445633  .00025631  00000+0  93589-3 0  9992
2 47529  97.3909 181.6560 0004907 223.5234 136.5619 15.28092232126806
LEMUR-2-NOOBNOOB        
1 47538U 21006DY  23123.39285275  .00020849  00000+0  70945-3 0  9998
2 47538  97.3966 183.7414 0007485 220.6336 139.4346 15.30424915125937
LEMUR-2-AMANDA-SVANTE   
1 48269U 21034B   23123.17045508  .00005723  00000+0  58135-3 0  9991
2 48269  97.7093 191.8634 0004856 103.2446 256.9315 14.91189774109104
LEMUR-2-SPECIAL-K       
1 48273U 21034F   23123.43454750  .00006544  00000+0  65785-3 0  9999
2 48273  97.7091 192.1250 0004772 100.9485 259.2271 14.91556428109155
LEMUR-2-JACKSON         
1 48885U 21059G   23123.34988247  .00031581  00000+0  98666-3 0  9991
2 48885  97.5797 260.0821 0005975  78.3593 281.8319 15.33100430102600
LEMUR-2-ANNABANANA      
1 48923U 21059AW  23123.32437011  .00037479  00000+0  10528-2 0  9992
2 48923  97.5744 260.9797 0007105  57.3811 302.8118 15.36414754102693
LEMUR-2-JOHN-TREIRES    
1 48925U 21059AY  23123.35812265  .00047076  00000+0  12069-2 0  9991
2 48925  97.5905 262.4707 0008282  59.4857 300.7204 15.39181601102757
LEMUR-2-AC-CUBED        
1 48927U 21059BA  23123.37132004  .00032328  00000+0  97484-3 0  9990
2 48927  97.5878 261.4691 0011508  63.2065 297.0353 15.34174528102701
LEMUR-2-MERIMA          
1 48929U 21059BC  23123.34421625  .00034104  00000+0  95614-3 0  9996
2 48929  97.5743 261.7320 0010690  59.8886 300.3416 15.36463214102746
LEMUR-2-CARLSANTAMARI   
1 48959U 21059CJ  23123.36355178  .00096040  00000+0  15975-2 0  9998
2 48959  97.5846 264.6340 0006179  59.2895 300.8965 15.51693497102916
LEMUR-2-RAMONAMAE       
1 51021U 22002AP  23123.14203399  .00035324  00000+0  12156-2 0  9990
2 51021  97.4452 192.1182 0006396  57.9102 302.2759 15.29956887 71987
LEMUR-2-KING-JULIEN     
1 51022U 22002AQ  23123.46160606  .00031676  00000+0  11144-2 0  9991
2 51022  97.4437 192.1702 0006274  54.3920 305.7904 15.29261145 72025
LEMUR-2-ROHOVITHSA      
1 51036U 22002BE  23123.45762806  .00017531  00000+0  75266-3 0  9995
2 51036  97.4451 190.9759 0008386  58.6618 301.5438 15.22731816 71936
LEMUR-2-MIRIWARI        
1 51054U 22002BY  23123.17529728  .00022686  00000+0  95463-3 0  9996
2 51054  97.4435 190.6871 0007160  53.5191 306.6705 15.23367150 71894
LEMUR-2-DJIRANG         
1 51058U 22002CC  23123.43890331  .00014093  00000+0  59511-3 0  9997
2 51058  97.4410 190.8168 0006851  52.7213 307.4648 15.23353044 71931
LEMUR-2-KRYWE           
1 51100U 22003G   23122.91456820  .00232805  00000+0  81350-3 0  9998
2 51100  44.9660  67.1081 0007803 144.0305 216.1127 15.87895170 73131
LEMUR-2-TENNYSONLILY    
1 52732U 22057A   23123.55952589  .00028577  00000+0  11062-2 0  9994
2 52732  97.5436 240.9748 0008236 156.1834 203.9787 15.26117328 51947
LEMUR-2-VANDENDRIES     
1 52733U 22057B   23123.55768869  .00021580  00000+0  95803-3 0  9994
2 52733  97.5285 239.9813 0006864 156.4421 203.7130 15.21556932 51911
LEMUR-2-KAREN B         
1 52736U 22057E   23123.32411680  .00031954  00000+0  12009-2 0  9990
2 52736  97.5298 240.3891 0006741 148.0078 212.1571 15.27084667 51920
LEMUR-2-HANCOM-1        
1 52740U 22057J   23123.26208557  .00018915  00000+0  81729-3 0  9993
2 52740  97.5475 240.5709 0009752 146.2459 213.9400 15.22487950 51871
LEMUR-2-MIMI1307        
1 52769U 22057AP  23122.96338726  .00012427  00000+0  55454-3 0  9990
2 52769  97.5466 240.5972 0011896 128.5695 231.6608 15.21462604 51854
LEMUR-2-PHILARI         
1 55013U 23001E   23123.39121791  .00018646  00000+0  93402-3 0  9999
2 55013  97.4793 183.6332 0010595 161.4949 198.6672 15.17375430 18289
LEMUR-2-DISCLAIMER      
1 55014U 23001F   23123.45069088  .00017218  00000+0  86402-3 0  9993
2 55014  97.4833 183.7677 0011573 168.5162 191.6337 15.17321203 18291
LEMUR-2-STEVEALBERS     
1 55017U 23001J   23123.40077946  .00012716  00000+0  64676-3 0  9990
2 55017  97.4778 183.5981 0010983 162.6070 197.5542 15.16924445 18283
LEMUR-2-EMMACULATE      
1 55037U 23001AE  23123.38977912  .00020268  00000+0  95685-3 0  9996
2 55037  97.4851 184.0305 0016051 156.4884 203.7088 15.19357819 18305
LEMUR-2-MMOLO           
1 55038U 23001AF  23123.43865802  .00021438  00000+0  99938-3 0  9992
2 55038  97.4870 184.1422 0016494 157.1876 203.0095 15.19775938 18316
LEMUR-2-FUENTETAJA-01   
1 55088U 23001CH  23123.42098042  .00014762  00000+0  71588-3 0  9993
2 55088  97.4880 184.0302 0016489 155.8812 204.3198 15.18488379 18303
LEMUR-2-ONREFLECTION    
1 56182U 23054E   23123.54298653  .00014478  00000+0  64022-3 0  9999
2 56182  97.4030  19.0862 0008899 174.1419 185.9923 15.21760637  3383
LEMUR-2-SPACEGUS        
1 56187U 23054K   23123.54114763  .00014121  00000+0  62177-3 0  9997
2 56187  97.4037  19.0884 0009034 165.4997 194.6500 15.21912545  3380
LEMUR-2-ROMEO-N-LEO     
1 56206U 23054AE  23123.58980606  .00026867  00000+0  11197-2 0  9995
2 56206  97.4034  19.1746 0014362 157.9748 202.2109 15.23586911  3395
